CCSDS_OMM_VERS = 2.0
CREATION_DATE  = 
ORIGINATOR     = 

OBJECT_NAME    = 2025-313C
OBJECT_ID      = 2025-313C
CENTER_NAME    = EARTH
REF_FRAME      = TEME
TIME_SYSTEM    = UTC
MEAN_ELEMENT_THEORY = SGP/SGP4

EPOCH          = 2026-01-08T12:44:16.271232
MEAN_MOTION    = 14.84457101
ECCENTRICITY   = .01634731
INCLINATION    = 97.6363
RA_OF_ASC_NODE = 85.5966
ARG_OF_PERICENTER = 144.2281
MEAN_ANOMALY   = 217.0018

EPHEMERIS_TYPE = 0
CLASSIFICATION_TYPE = U
NORAD_CAT_ID   = 67250
ELEMENT_SET_NO = 999
REV_AT_EPOCH   = 163
BSTAR          = .21549912E-2
MEAN_MOTION_DOT = .23044E-3
MEAN_MOTION_DDOT = 0

CCSDS_OMM_VERS = 2.0
CREATION_DATE  = 
ORIGINATOR     = 

OBJECT_NAME    = 2025-313D
OBJECT_ID      = 2025-313D
CENTER_NAME    = EARTH
REF_FRAME      = TEME
TIME_SYSTEM    = UTC
MEAN_ELEMENT_THEORY = SGP/SGP4

EPOCH          = 2026-01-08T11:57:32.643072
MEAN_MOTION    = 14.88701576
ECCENTRICITY   = .01522305
INCLINATION    = 97.5881
RA_OF_ASC_NODE = 85.5542
ARG_OF_PERICENTER = 137.0094
MEAN_ANOMALY   = 224.3138

EPHEMERIS_TYPE = 0
CLASSIFICATION_TYPE = U
NORAD_CAT_ID   = 67251
ELEMENT_SET_NO = 999
REV_AT_EPOCH   = 163
BSTAR          = .3991447E-3
MEAN_MOTION_DOT = .457E-4
MEAN_MOTION_DDOT = 0

CCSDS_OMM_VERS = 2.0
CREATION_DATE  = 
ORIGINATOR     = 

OBJECT_NAME    = 2025-313E
OBJECT_ID      = 2025-313E
CENTER_NAME    = EARTH
REF_FRAME      = TEME
TIME_SYSTEM    = UTC
MEAN_ELEMENT_THEORY = SGP/SGP4

EPOCH          = 2026-01-08T11:06:59.334336
MEAN_MOTION    = 15.21534648
ECCENTRICITY   = .00105764
INCLINATION    = 97.4116
RA_OF_ASC_NODE = 85.7611
ARG_OF_PERICENTER = 178.8457
MEAN_ANOMALY   = 181.2806

EPHEMERIS_TYPE = 0
CLASSIFICATION_TYPE = U
NORAD_CAT_ID   = 67252
ELEMENT_SET_NO = 999
REV_AT_EPOCH   = 166
BSTAR          = .45412787E-3
MEAN_MOTION_DOT = .1018E-3
MEAN_MOTION_DDOT = 0

CCSDS_OMM_VERS = 2.0
CREATION_DATE  = 
ORIGINATOR     = 

OBJECT_NAME    = 2025-313F
OBJECT_ID      = 2025-313F
CENTER_NAME    = EARTH
REF_FRAME      = TEME
TIME_SYSTEM    = UTC
MEAN_ELEMENT_THEORY = SGP/SGP4

EPOCH          = 2026-01-08T13:17:20.723712
MEAN_MOTION    = 15.64459876
ECCENTRICITY   = .00100604
INCLINATION    = 97.1034
RA_OF_ASC_NODE = 85.8339
ARG_OF_PERICENTER = 198.8438
MEAN_ANOMALY   = 161.2451

EPHEMERIS_TYPE = 0
CLASSIFICATION_TYPE = U
NORAD_CAT_ID   = 67253
ELEMENT_SET_NO = 999
REV_AT_EPOCH   = 170
BSTAR          = .65878177E-3
MEAN_MOTION_DOT = .63645E-3
MEAN_MOTION_DDOT = 0

CCSDS_OMM_VERS = 2.0
CREATION_DATE  = 
ORIGINATOR     = 

OBJECT_NAME    = 2025-313G
OBJECT_ID      = 2025-313G
CENTER_NAME    = EARTH
REF_FRAME      = TEME
TIME_SYSTEM    = UTC
MEAN_ELEMENT_THEORY = SGP/SGP4

EPOCH          = 2026-01-08T13:17:52.151712
MEAN_MOTION    = 15.64381362
ECCENTRICITY   = .00103027
INCLINATION    = 97.1032
RA_OF_ASC_NODE = 85.8332
ARG_OF_PERICENTER = 199.8872
MEAN_ANOMALY   = 160.1988

EPHEMERIS_TYPE = 0
CLASSIFICATION_TYPE = U
NORAD_CAT_ID   = 67254
ELEMENT_SET_NO = 999
REV_AT_EPOCH   = 169
BSTAR          = .59414208E-3
MEAN_MOTION_DOT = .57175E-3
MEAN_MOTION_DDOT = 0

CCSDS_OMM_VERS = 2.0
CREATION_DATE  = 
ORIGINATOR     = 

OBJECT_NAME    = 2025-313H
OBJECT_ID      = 2025-313H
CENTER_NAME    = EARTH
REF_FRAME      = TEME
TIME_SYSTEM    = UTC
MEAN_ELEMENT_THEORY = SGP/SGP4

EPOCH          = 2026-01-08T12:49:57.363744
MEAN_MOTION    = 15.02142633
ECCENTRICITY   = .00905028
INCLINATION    = 97.3112
RA_OF_ASC_NODE = 85.3878
ARG_OF_PERICENTER = 157.9707
MEAN_ANOMALY   = 202.5448

EPHEMERIS_TYPE = 0
CLASSIFICATION_TYPE = U
NORAD_CAT_ID   = 67255
ELEMENT_SET_NO = 999
REV_AT_EPOCH   = 165
BSTAR          = .1500175E-3
MEAN_MOTION_DOT = .2094E-4
MEAN_MOTION_DDOT = 0

CCSDS_OMM_VERS = 2.0
CREATION_DATE  = 
ORIGINATOR     = 

OBJECT_NAME    = 2025-313J
OBJECT_ID      = 2025-313J
CENTER_NAME    = EARTH
REF_FRAME      = TEME
TIME_SYSTEM    = UTC
MEAN_ELEMENT_THEORY = SGP/SGP4

EPOCH          = 2026-01-07T19:37:11.178336
MEAN_MOTION    = 15.19741528
ECCENTRICITY   = .00163434
INCLINATION    = 97.4108
RA_OF_ASC_NODE = 85.0933
ARG_OF_PERICENTER = 200.8545
MEAN_ANOMALY   = 159.2025

EPHEMERIS_TYPE = 0
CLASSIFICATION_TYPE = U
NORAD_CAT_ID   = 67256
ELEMENT_SET_NO = 999
REV_AT_EPOCH   = 156
BSTAR          = .53124865E-3
MEAN_MOTION_DOT = .11337E-3
MEAN_MOTION_DDOT = 0

CCSDS_OMM_VERS = 2.0
CREATION_DATE  = 
ORIGINATOR     = 

OBJECT_NAME    = 2025-313K
OBJECT_ID      = 2025-313K
CENTER_NAME    = EARTH
REF_FRAME      = TEME
TIME_SYSTEM    = UTC
MEAN_ELEMENT_THEORY = SGP/SGP4

EPOCH          = 2026-01-08T11:24:53.418528
MEAN_MOTION    = 15.19784951
ECCENTRICITY   = .00161099
INCLINATION    = 97.4116
RA_OF_ASC_NODE = 85.7409
ARG_OF_PERICENTER = 200.5215
MEAN_ANOMALY   = 159.5375

EPHEMERIS_TYPE = 0
CLASSIFICATION_TYPE = U
NORAD_CAT_ID   = 67257
ELEMENT_SET_NO = 999
REV_AT_EPOCH   = 166
BSTAR          = .51123428E-3
MEAN_MOTION_DOT = .10919E-3
MEAN_MOTION_DDOT = 0

CCSDS_OMM_VERS = 2.0
CREATION_DATE  = 
ORIGINATOR     = 

OBJECT_NAME    = 2025-313L
OBJECT_ID      = 2025-313L
CENTER_NAME    = EARTH
REF_FRAME      = TEME
TIME_SYSTEM    = UTC
MEAN_ELEMENT_THEORY = SGP/SGP4

EPOCH          = 2026-01-08T11:24:38.876544
MEAN_MOTION    = 15.19822227
ECCENTRICITY   = .00161071
INCLINATION    = 97.4111
RA_OF_ASC_NODE = 85.7397
ARG_OF_PERICENTER = 199.7671
MEAN_ANOMALY   = 160.2941

EPHEMERIS_TYPE = 0
CLASSIFICATION_TYPE = U
NORAD_CAT_ID   = 67258
ELEMENT_SET_NO = 999
REV_AT_EPOCH   = 166
BSTAR          = .54574863E-3
MEAN_MOTION_DOT = .11675E-3
MEAN_MOTION_DDOT = 0

CCSDS_OMM_VERS = 2.0
CREATION_DATE  = 
ORIGINATOR     = 

OBJECT_NAME    = 2025-313M
OBJECT_ID      = 2025-313M
CENTER_NAME    = EARTH
REF_FRAME      = TEME
TIME_SYSTEM    = UTC
MEAN_ELEMENT_THEORY = SGP/SGP4

EPOCH          = 2026-01-08T11:22:29.538336
MEAN_MOTION    = 15.20078944
ECCENTRICITY   = .0015313
INCLINATION    = 97.4154
RA_OF_ASC_NODE = 85.7597
ARG_OF_PERICENTER = 198.1032
MEAN_ANOMALY   = 161.9660

EPHEMERIS_TYPE = 0
CLASSIFICATION_TYPE = U
NORAD_CAT_ID   = 67259
ELEMENT_SET_NO = 999
REV_AT_EPOCH   = 166
BSTAR          = .70229989E-3
MEAN_MOTION_DOT = .15158E-3
MEAN_MOTION_DDOT = 0

CCSDS_OMM_VERS = 2.0
CREATION_DATE  = 
ORIGINATOR     = 

OBJECT_NAME    = 2025-313N
OBJECT_ID      = 2025-313N
CENTER_NAME    = EARTH
REF_FRAME      = TEME
TIME_SYSTEM    = UTC
MEAN_ELEMENT_THEORY = SGP/SGP4

EPOCH          = 2026-01-08T03:29:09.094560
MEAN_MOTION    = 15.19934247
ECCENTRICITY   = .00153611
INCLINATION    = 97.4123
RA_OF_ASC_NODE = 85.4195
ARG_OF_PERICENTER = 201.4988
MEAN_ANOMALY   = 158.5604

EPHEMERIS_TYPE = 0
CLASSIFICATION_TYPE = U
NORAD_CAT_ID   = 67260
ELEMENT_SET_NO = 999
REV_AT_EPOCH   = 161
BSTAR          = .44806675E-3
MEAN_MOTION_DOT = .9598E-4
MEAN_MOTION_DDOT = 0

CCSDS_OMM_VERS = 2.0
CREATION_DATE  = 
ORIGINATOR     = 

OBJECT_NAME    = 2025-313P
OBJECT_ID      = 2025-313P
CENTER_NAME    = EARTH
REF_FRAME      = TEME
TIME_SYSTEM    = UTC
MEAN_ELEMENT_THEORY = SGP/SGP4

EPOCH          = 2026-01-08T11:21:41.447232
MEAN_MOTION    = 15.20220961
ECCENTRICITY   = .00151547
INCLINATION    = 97.4155
RA_OF_ASC_NODE = 85.7608
ARG_OF_PERICENTER = 198.3944
MEAN_ANOMALY   = 161.6746

EPHEMERIS_TYPE = 0
CLASSIFICATION_TYPE = U
NORAD_CAT_ID   = 67261
ELEMENT_SET_NO = 999
REV_AT_EPOCH   = 166
BSTAR          = .96495365E-3
MEAN_MOTION_DOT = .20954E-3
MEAN_MOTION_DDOT = 0

