2025-313C               
1 67250U 25313C   26008.53074388  .00023044  00000+0  21550-2 0  9995
2 67250  97.6363  85.5966 0163473 144.2281 217.0018 14.84457101  1635
2025-313D               
1 67251U 25313D   26008.49829448  .00004570  00000+0  39914-3 0  9993
2 67251  97.5881  85.5542 0152230 137.0094 224.3138 14.88701576  1637
2025-313E               
1 67252U 25313E   26008.46318674  .00010180  00000+0  45413-3 0  9990
2 67252  97.4116  85.7611 0010576 178.8457 181.2806 15.21534648  1667
2025-313F               
1 67253U 25313F   26008.55371208  .00063645  00000+0  65878-3 0  9994
2 67253  97.1034  85.8339 0010060 198.8438 161.2451 15.64459876  1706
2025-313G               
1 67254U 25313G   26008.55407583  .00057175  00000+0  59414-3 0  9991
2 67254  97.1032  85.8332 0010302 199.8872 160.1988 15.64381362  1695
2025-313H               
1 67255U 25313H   26008.53469171  .00002094  00000+0  15002-3 0  9996
2 67255  97.3112  85.3878 0090502 157.9707 202.5448 15.02142633  1655
2025-313J               
1 67256U 25313J   26007.81749049  .00011337  00000+0  53125-3 0  9990
2 67256  97.4108  85.0933 0016343 200.8545 159.2025 15.19741528  1565
2025-313K               
1 67257U 25313K   26008.47561827  .00010919  00000+0  51123-3 0  9991
2 67257  97.4116  85.7409 0016109 200.5215 159.5375 15.19784951  1660
2025-313L               
1 67258U 25313L   26008.47544996  .00011675  00000+0  54575-3 0  9994
2 67258  97.4111  85.7397 0016107 199.7671 160.2941 15.19822227  1662
2025-313M               
1 67259U 25313M   26008.47395299  .00015158  00000+0  70230-3 0  9991
2 67259  97.4154  85.7597 0015313 198.1032 161.9660 15.20078944  1661
2025-313N               
1 67260U 25313N   26008.14524415  .00009598  00000+0  44807-3 0  9993
2 67260  97.4123  85.4195 0015361 201.4988 158.5604 15.19934247  1611
2025-313P               
1 67261U 25313P   26008.47339638  .00020954  00000+0  96495-3 0  9990
2 67261  97.4155  85.7608 0015154 198.3944 161.6746 15.20220961  1665
